[{"OBJECT_NAME":"STARLINK-1723","OBJECT_ID":"2020-062J","EPOCH":"2021-09-10T18:39:18.759744","MEAN_MOTION":15.06391173,"ECCENTRICITY":0.0001668,"INCLINATION":53.0545,"RA_OF_ASC_NODE":182.972,"ARG_OF_PERICENTER":65.9833,"MEAN_ANOMALY":294.1331,"EPHEMERIS_TYPE":0,"CLASSIFICATION_TYPE":"U","NORAD_CAT_ID":46333,"ELEMENT_SET_NO":999,"REV_AT_EPOCH":5698,"BSTAR":-1.1647e-5,"MEAN_MOTION_DOT":-4.55e-6,"MEAN_MOTION_DDOT":0},{"OBJECT_NAME":"STARLINK-1725","OBJECT_ID":"2020-062K","EPOCH":"2021-09-11T02:01:08.284224","MEAN_MOTION":15.06402569,"ECCENTRICITY":0.0001948,"INCLINATION":53.0541,"RA_OF_ASC_NODE":161.5816,"ARG_OF_PERICENTER":80.1049,"MEAN_ANOMALY":280.0159,"EPHEMERIS_TYPE":0,"CLASSIFICATION_TYPE":"U","NORAD_CAT_ID":46334,"ELEMENT_SET_NO":999,"REV_AT_EPOCH":5749,"BSTAR":1.3573e-5,"MEAN_MOTION_DOT":-8.0e-7,"MEAN_MOTION_DDOT":0},{"OBJECT_NAME":"STARLINK-1727","OBJECT_ID":"2020-062L","EPOCH":"2021-09-11T01:43:55.743744","MEAN_MOTION":15.06397646,"ECCENTRICITY":0.0001912,"INCLINATION":53.0528,"RA_OF_ASC_NODE":181.6412,"ARG_OF_PERICENTER":62.3524,"MEAN_ANOMALY":297.7659,"EPHEMERIS_TYPE":0,"CLASSIFICATION_TYPE":"U","NORAD_CAT_ID":46335,"ELEMENT_SET_NO":999,"REV_AT_EPOCH":5721,"BSTAR":2.2758e-5,"MEAN_MOTION_DOT":5.7e-7,"MEAN_MOTION_DDOT":0},{"OBJECT_NAME":"STARLINK-1738","OBJECT_ID":"2020-062M","EPOCH":"2021-09-10T19:08:30.321888","MEAN_MOTION":15.06393816,"ECCENTRICITY":0.000178,"INCLINATION":53.0551,"RA_OF_ASC_NODE":162.8765,"ARG_OF_PERICENTER":63.2039,"MEAN_ANOMALY":296.9132,"EPHEMERIS_TYPE":0,"CLASSIFICATION_TYPE":"U","NORAD_CAT_ID":46336,"ELEMENT_SET_NO":999,"REV_AT_EPOCH":5726,"BSTAR":6.952e-5,"MEAN_MOTION_DOT":7.54e-6,"MEAN_MOTION_DDOT":0},{"OBJECT_NAME":"STARLINK-1750","OBJECT_ID":"2020-062N","EPOCH":"2021-09-10T17:54:11.731104","MEAN_MOTION":15.06393955,"ECCENTRICITY":0.0001986,"INCLINATION":53.0533,"RA_OF_ASC_NODE":163.1068,"ARG_OF_PERICENTER":58.3943,"MEAN_ANOMALY":301.724,"EPHEMERIS_TYPE":0,"CLASSIFICATION_TYPE":"U","NORAD_CAT_ID":46337,"ELEMENT_SET_NO":999,"REV_AT_EPOCH":5726,"BSTAR":-1.5857e-5,"MEAN_MOTION_DOT":-5.18e-6,"MEAN_MOTION_DDOT":0},{"OBJECT_NAME":"STARLINK-1752","OBJECT_ID":"2020-062P","EPOCH":"2021-09-10T19:05:51.842688","MEAN_MOTION":15.06391062,"ECCENTRICITY":0.0001837,"INCLINATION":53.0536,"RA_OF_ASC_NODE":182.874,"ARG_OF_PERICENTER":52.5463,"MEAN_ANOMALY":307.5692,"EPHEMERIS_TYPE":0,"CLASSIFICATION_TYPE":"U","NORAD_CAT_ID":46338,"ELEMENT_SET_NO":999,"REV_AT_EPOCH":5698,"BSTAR":-2.6169e-5,"MEAN_MOTION_DOT":-6.71e-6,"MEAN_MOTION_DDOT":0},{"OBJECT_NAME":"STARLINK-1757","OBJECT_ID":"2020-062Q","EPOCH":"2021-09-11T03:03:09.444096","MEAN_MOTION":15.50675763,"ECCENTRICITY":0.0007794,"INCLINATION":53.0538,"RA_OF_ASC_NODE":154.3331,"ARG_OF_PERICENTER":272.7703,"MEAN_ANOMALY":87.2413,"EPHEMERIS_TYPE":0,"CLASSIFICATION_TYPE":"U","NORAD_CAT_ID":46339,"ELEMENT_SET_NO":999,"REV_AT_EPOCH":5759,"BSTAR":0.0045287,"MEAN_MOTION_DOT":0.00273543,"MEAN_MOTION_DDOT":0},{"OBJECT_NAME":"STARLINK-1759","OBJECT_ID":"2020-062R","EPOCH":"2021-09-11T02:25:01.986816","MEAN_MOTION":15.06389956,"ECCENTRICITY":0.0001806,"INCLINATION":53.053,"RA_OF_ASC_NODE":181.5161,"ARG_OF_PERICENTER":63.2395,"MEAN_ANOMALY":296.8779,"EPHEMERIS_TYPE":0,"CLASSIFICATION_TYPE":"U","NORAD_CAT_ID":46340,"ELEMENT_SET_NO":999,"REV_AT_EPOCH":5721,"BSTAR":6.4645e-6,"MEAN_MOTION_DOT":-1.85e-6,"MEAN_MOTION_DDOT":0},{"OBJECT_NAME":"STARLINK-1760","OBJECT_ID":"2020-062S","EPOCH":"2021-09-10T21:47:43.605312","MEAN_MOTION":15.06402136,"ECCENTRICITY":0.0002002,"INCLINATION":53.0547,"RA_OF_ASC_NODE":162.3884,"ARG_OF_PERICENTER":63.4069,"MEAN_ANOMALY":296.7125,"EPHEMERIS_TYPE":0,"CLASSIFICATION_TYPE":"U","NORAD_CAT_ID":46341,"ELEMENT_SET_NO":999,"REV_AT_EPOCH":5729,"BSTAR":7.1763e-6,"MEAN_MOTION_DOT":-1.75e-6,"MEAN_MOTION_DDOT":0},{"OBJECT_NAME":"STARLINK-1762","OBJECT_ID":"2020-062T","EPOCH":"2021-09-11T00:29:36.422880","MEAN_MOTION":15.06405286,"ECCENTRICITY":0.000173,"INCLINATION":53.0551,"RA_OF_ASC_NODE":181.8746,"ARG_OF_PERICENTER":62.377,"MEAN_ANOMALY":297.7395,"EPHEMERIS_TYPE":0,"CLASSIFICATION_TYPE":"U","NORAD_CAT_ID":46342,"ELEMENT_SET_NO":999,"REV_AT_EPOCH":5720,"BSTAR":1.1452e-5,"MEAN_MOTION_DOT":-1.11e-6,"MEAN_MOTION_DDOT":0},{"OBJECT_NAME":"STARLINK-1764","OBJECT_ID":"2020-062U","EPOCH":"2021-09-11T01:57:11.969856","MEAN_MOTION":15.06396935,"ECCENTRICITY":0.0001986,"INCLINATION":53.0547,"RA_OF_ASC_NODE":161.5998,"ARG_OF_PERICENTER":72.395,"MEAN_ANOMALY":287.7256,"EPHEMERIS_TYPE":0,"CLASSIFICATION_TYPE":"U","NORAD_CAT_ID":46343,"ELEMENT_SET_NO":999,"REV_AT_EPOCH":5749,"BSTAR":2.5996e-5,"MEAN_MOTION_DOT":1.05e-6,"MEAN_MOTION_DDOT":0},{"OBJECT_NAME":"STARLINK-1765","OBJECT_ID":"2020-062V","EPOCH":"2021-09-10T21:37:07.397184","MEAN_MOTION":15.06395171,"ECCENTRICITY":0.0001985,"INCLINATION":53.0533,"RA_OF_ASC_NODE":162.412,"ARG_OF_PERICENTER":61.0696,"MEAN_ANOMALY":299.0492,"EPHEMERIS_TYPE":0,"CLASSIFICATION_TYPE":"U","NORAD_CAT_ID":46344,"ELEMENT_SET_NO":999,"REV_AT_EPOCH":5728,"BSTAR":2.2353e-5,"MEAN_MOTION_DOT":5.1e-7,"MEAN_MOTION_DDOT":0},{"OBJECT_NAME":"STARLINK-1767","OBJECT_ID":"2020-062W","EPOCH":"2021-09-11T02:26:22.641216","MEAN_MOTION":15.06408104,"ECCENTRICITY":0.0001935,"INCLINATION":53.0541,"RA_OF_ASC_NODE":181.5015,"ARG_OF_PERICENTER":60.4618,"MEAN_ANOMALY":299.6564,"EPHEMERIS_TYPE":0,"CLASSIFICATION_TYPE":"U","NORAD_CAT_ID":46345,"ELEMENT_SET_NO":999,"REV_AT_EPOCH":5721,"BSTAR":4.7603e-5,"MEAN_MOTION_DOT":4.28e-6,"MEAN_MOTION_DDOT":0},{"OBJECT_NAME":"STARLINK-1546","OBJECT_ID":"2020-062X","EPOCH":"2021-09-10T19:48:46.765728","MEAN_MOTION":15.34266018,"ECCENTRICITY":0.0001359,"INCLINATION":53.054,"RA_OF_ASC_NODE":81.0991,"ARG_OF_PERICENTER":115.7019,"MEAN_ANOMALY":244.4122,"EPHEMERIS_TYPE":0,"CLASSIFICATION_TYPE":"U","NORAD_CAT_ID":46346,"ELEMENT_SET_NO":999,"REV_AT_EPOCH":5842,"BSTAR":2.5014e-5,"MEAN_MOTION_DOT":4.66e-6,"MEAN_MOTION_DDOT":0},{"OBJECT_NAME":"STARLINK-1547","OBJECT_ID":"2020-062Y","EPOCH":"2021-09-11T01:26:01.615488","MEAN_MOTION":15.06391422,"ECCENTRICITY":0.0001954,"INCLINATION":53.0543,"RA_OF_ASC_NODE":136.6811,"ARG_OF_PERICENTER":78.8665,"MEAN_ANOMALY":281.2544,"EPHEMERIS_TYPE":0,"CLASSIFICATION_TYPE":"U","NORAD_CAT_ID":46347,"ELEMENT_SET_NO":999,"REV_AT_EPOCH":5783,"BSTAR":2.9692e-5,"MEAN_MOTION_DOT":1.61e-6,"MEAN_MOTION_DDOT":0},{"OBJECT_NAME":"STARLINK-1553","OBJECT_ID":"2020-062Z","EPOCH":"2021-09-11T02:29:02.641920","MEAN_MOTION":15.0639584,"ECCENTRICITY":0.0001602,"INCLINATION":53.0546,"RA_OF_ASC_NODE":161.491,"ARG_OF_PERICENTER":88.5111,"MEAN_ANOMALY":271.6062,"EPHEMERIS_TYPE":0,"CLASSIFICATION_TYPE":"U","NORAD_CAT_ID":46348,"ELEMENT_SET_NO":999,"REV_AT_EPOCH":5749,"BSTAR":1.5193e-5,"MEAN_MOTION_DOT":-5.5e-7,"MEAN_MOTION_DDOT":0},{"OBJECT_NAME":"STARLINK-1575","OBJECT_ID":"2020-062AA","EPOCH":"2021-09-11T00:48:51.238368","MEAN_MOTION":15.06403783,"ECCENTRICITY":0.0001847,"INCLINATION":53.0552,"RA_OF_ASC_NODE":136.6728,"ARG_OF_PERICENTER":87.0648,"MEAN_ANOMALY":273.0552,"EPHEMERIS_TYPE":0,"CLASSIFICATION_TYPE":"U","NORAD_CAT_ID":46349,"ELEMENT_SET_NO":999,"REV_AT_EPOCH":5783,"BSTAR":1.9893e-6,"MEAN_MOTION_DOT":-2.52e-6,"MEAN_MOTION_DDOT":0},{"OBJECT_NAME":"STARLINK-1617","OBJECT_ID":"2020-062AB","EPOCH":"2021-09-10T19:11:08.960064","MEAN_MOTION":15.0640166,"ECCENTRICITY":0.000194,"INCLINATION":53.0536,"RA_OF_ASC_NODE":182.8566,"ARG_OF_PERICENTER":58.9819,"MEAN_ANOMALY":301.136,"EPHEMERIS_TYPE":0,"CLASSIFICATION_TYPE":"U","NORAD_CAT_ID":46350,"ELEMENT_SET_NO":999,"REV_AT_EPOCH":5699,"BSTAR":0.00012975,"MEAN_MOTION_DOT":1.652e-5,"MEAN_MOTION_DDOT":0},{"OBJECT_NAME":"STARLINK-1646","OBJECT_ID":"2020-062AC","EPOCH":"2021-09-10T17:43:35.402880","MEAN_MOTION":15.06389314,"ECCENTRICITY":0.0002053,"INCLINATION":53.0528,"RA_OF_ASC_NODE":163.1418,"ARG_OF_PERICENTER":66.4804,"MEAN_ANOMALY":293.64,"EPHEMERIS_TYPE":0,"CLASSIFICATION_TYPE":"U","NORAD_CAT_ID":46351,"ELEMENT_SET_NO":999,"REV_AT_EPOCH":5726,"BSTAR":4.5034e-6,"MEAN_MOTION_DOT":-2.15e-6,"MEAN_MOTION_DDOT":0},{"OBJECT_NAME":"STARLINK-1653","OBJECT_ID":"2020-062AD","EPOCH":"2021-09-11T01:14:43.570752","MEAN_MOTION":15.06400412,"ECCENTRICITY":0.0001864,"INCLINATION":53.0541,"RA_OF_ASC_NODE":161.7263,"ARG_OF_PERICENTER":61.5757,"MEAN_ANOMALY":298.5419,"EPHEMERIS_TYPE":0,"CLASSIFICATION_TYPE":"U","NORAD_CAT_ID":46352,"ELEMENT_SET_NO":999,"REV_AT_EPOCH":5749,"BSTAR":0.00013839,"MEAN_MOTION_DOT":1.78e-5,"MEAN_MOTION_DDOT":0},{"OBJECT_NAME":"STARLINK-1656","OBJECT_ID":"2020-062AE","EPOCH":"2021-09-11T02:47:37.618368","MEAN_MOTION":15.06394154,"ECCENTRICITY":0.0002023,"INCLINATION":53.0546,"RA_OF_ASC_NODE":181.441,"ARG_OF_PERICENTER":60.357,"MEAN_ANOMALY":299.762,"EPHEMERIS_TYPE":0,"CLASSIFICATION_TYPE":"U","NORAD_CAT_ID":46353,"ELEMENT_SET_NO":999,"REV_AT_EPOCH":5721,"BSTAR":3.1284e-6,"MEAN_MOTION_DOT":-2.35e-6,"MEAN_MOTION_DDOT":0},{"OBJECT_NAME":"STARLINK-1657","OBJECT_ID":"2020-062AF","EPOCH":"2021-09-11T02:31:41.352672","MEAN_MOTION":15.06407219,"ECCENTRICITY":0.0001993,"INCLINATION":53.0535,"RA_OF_ASC_NODE":181.4875,"ARG_OF_PERICENTER":71.2626,"MEAN_ANOMALY":288.8579,"EPHEMERIS_TYPE":0,"CLASSIFICATION_TYPE":"U","NORAD_CAT_ID":46354,"ELEMENT_SET_NO":999,"REV_AT_EPOCH":5721,"BSTAR":3.08e-5,"MEAN_MOTION_DOT":1.77e-6,"MEAN_MOTION_DDOT":0},{"OBJECT_NAME":"STARLINK-1661","OBJECT_ID":"2020-062AG","EPOCH":"2021-09-11T01:54:33.233184","MEAN_MOTION":15.06389856,"ECCENTRICITY":0.0001629,"INCLINATION":53.0544,"RA_OF_ASC_NODE":181.6045,"ARG_OF_PERICENTER":69.6396,"MEAN_ANOMALY":290.4767,"EPHEMERIS_TYPE":0,"CLASSIFICATION_TYPE":"U","NORAD_CAT_ID":46355,"ELEMENT_SET_NO":999,"REV_AT_EPOCH":5721,"BSTAR":-2.8576e-6,"MEAN_MOTION_DOT":-3.24e-6,"MEAN_MOTION_DDOT":0},{"OBJECT_NAME":"STARLINK-1665","OBJECT_ID":"2020-062AH","EPOCH":"2021-09-11T00:34:55.970688","MEAN_MOTION":15.06390012,"ECCENTRICITY":0.0001898,"INCLINATION":53.0551,"RA_OF_ASC_NODE":181.8651,"ARG_OF_PERICENTER":56.1454,"MEAN_ANOMALY":303.9716,"EPHEMERIS_TYPE":0,"CLASSIFICATION_TYPE":"U","NORAD_CAT_ID":46356,"ELEMENT_SET_NO":999,"REV_AT_EPOCH":5720,"BSTAR":-1.2058e-5,"MEAN_MOTION_DOT":-4.61e-6,"MEAN_MOTION_DDOT":0}]
